SENTINEL-6              
1 46984U 20086A   23276.65914382 -.00000049  00000+0  53727-4 0  9996
2 46984  66.0442  26.1563 0007858 268.0160  91.9955 12.80929899133843
